[{"OBJECT_NAME":"STARLINK-11404 [DTC]","OBJECT_ID":"2024-213M","EPOCH":"2026-03-09T07:51:14.427648","MEAN_MOTION":15.69772284,"ECCENTRICITY":0.00016795,"INCLINATION":53.1575,"RA_OF_ASC_NODE":43.3869,"ARG_OF_PERICENTER":69.4218,"MEAN_ANOMALY":290.698,"EPHEMERIS_TYPE":0,"CLASSIFICATION_TYPE":"U","NORAD_CAT_ID":62019,"ELEMENT_SET_NO":999,"REV_AT_EPOCH":7485,"BSTAR":0.0012094541,"MEAN_MOTION_DOT":0.0014898,"MEAN_MOTION_DDOT":0},{"OBJECT_NAME":"FENGYUN 1C DEB","OBJECT_ID":"1999-025CUE","EPOCH":"2026-02-18T09:12:07.487136","MEAN_MOTION":15.64460458,"ECCENTRICITY":0.00384301,"INCLINATION":98.1181,"RA_OF_ASC_NODE":202.4936,"ARG_OF_PERICENTER":104.8925,"MEAN_ANOMALY":255.6593,"EPHEMERIS_TYPE":0,"CLASSIFICATION_TYPE":"U","NORAD_CAT_ID":32184,"ELEMENT_SET_NO":999,"REV_AT_EPOCH":99453,"BSTAR":0.002023567,"MEAN_MOTION_DOT":0.00206139,"MEAN_MOTION_DDOT":0}]
